SENTINEL-1A             
1 39634U 14016A   26198.60748559  .00000020  00000+0  14006-4 0  9993
2 39634  98.1738 205.6947 0001510  77.7211 282.4158 14.59175806654458
SENTINEL-1C             
1 62261U 24235A   26199.26402407  .00000043  00000+0  18798-4 0  9998
2 62261  98.1823 206.1312 0001397  88.7361 271.3998 14.59198040 85944
SENTINEL-1D             
1 66315U 25251A   26199.29846390 -.00000069  00000+0 -49666-5 0  9996
2 66315  98.1839 206.2201 0001298  86.8797 273.2552 14.59197003 37262
