{"fetched_at":"2026-07-18T17:30:16.246Z","source":"https://celestrak.org/NORAD/elements/gp.php?NAME=SENTINEL&FORMAT=JSON","constellation":"sentinel-1","records":[{"OBJECT_NAME":"SENTINEL-1A","OBJECT_ID":"2014-016A","EPOCH":"2026-07-17T14:34:46.754976","CLASSIFICATION_TYPE":"U","MEAN_MOTION":14.59175806,"ECCENTRICITY":0.00015106,"INCLINATION":98.1738,"RA_OF_ASC_NODE":205.6947,"ARG_OF_PERICENTER":77.7211,"MEAN_ANOMALY":282.4158,"EPHEMERIS_TYPE":0,"NORAD_CAT_ID":39634,"ELEMENT_SET_NO":999,"REV_AT_EPOCH":65445,"BSTAR":0.000014006304,"MEAN_MOTION_DOT":2e-7,"MEAN_MOTION_DDOT":0},{"OBJECT_NAME":"SENTINEL-1C","OBJECT_ID":"2024-235A","EPOCH":"2026-07-18T06:20:11.679648","CLASSIFICATION_TYPE":"U","MEAN_MOTION":14.5919804,"ECCENTRICITY":0.00013972,"INCLINATION":98.1823,"RA_OF_ASC_NODE":206.1312,"ARG_OF_PERICENTER":88.7361,"MEAN_ANOMALY":271.3998,"EPHEMERIS_TYPE":0,"NORAD_CAT_ID":62261,"ELEMENT_SET_NO":999,"REV_AT_EPOCH":8594,"BSTAR":0.00001879828,"MEAN_MOTION_DOT":4.3e-7,"MEAN_MOTION_DDOT":0},{"OBJECT_NAME":"SENTINEL-1D","OBJECT_ID":"2025-251A","EPOCH":"2026-07-18T07:09:47.280960","CLASSIFICATION_TYPE":"U","MEAN_MOTION":14.59197003,"ECCENTRICITY":0.00012981,"INCLINATION":98.1839,"RA_OF_ASC_NODE":206.2201,"ARG_OF_PERICENTER":86.8797,"MEAN_ANOMALY":273.2552,"EPHEMERIS_TYPE":0,"NORAD_CAT_ID":66315,"ELEMENT_SET_NO":999,"REV_AT_EPOCH":3726,"BSTAR":-0.000004966591,"MEAN_MOTION_DOT":-6.9e-7,"MEAN_MOTION_DDOT":0}]}
